{
  "type": "FeatureCollection",
  "features": [
    {
      "type": "Feature",
      "geometry": {
        "type": "Point",
        "coordinates": [
          -122.4194,
          37.7749
        ]
      },
      "properties": {
        "name": "San Francisco",
        "country": "USA",
        "type": "City"
      }
    },
    {
      "type": "Feature",
      "geometry": {
        "type": "Point",
        "coordinates": [
          -0.1276,
          51.5074
        ]
      },
      "properties": {
        "name": "London",
        "country": "UK",
        "type": "City"
      }
    },
    {
      "type": "Feature",
      "geometry": {
        "type": "Point",
        "coordinates": [
          139.6917,
          35.6895
        ]
      },
      "properties": {
        "name": "Tokyo",
        "country": "Japan",
        "type": "City"
      }
    },
    {
      "type": "Feature",
      "geometry": {
        "type": "Point",
        "coordinates": [
          77.209,
          28.6139
        ]
      },
      "properties": {
        "name": "New Delhi",
        "country": "India",
        "type": "City"
      }
    },
    {
      "type": "Feature",
      "geometry": {
        "type": "Point",
        "coordinates": [
          2.3522,
          48.8566
        ]
      },
      "properties": {
        "name": "Paris",
        "country": "France",
        "type": "City"
      }
    },
    {
      "type": "Feature",
      "geometry": {
        "type": "LineString",
        "coordinates": [
          [
            -122.4194,
            37.7749
          ],
          [
            -0.1276,
            51.5074
          ]
        ]
      },
      "properties": {
        "name": "SF to London",
        "type": "Route"
      }
    }
  ]
}